{
    "satellites": [
        {
            "name": "starlink380",
            "title": "Starlink-380 (G17-16) (new)",
            "tle": [
                "1 70539C 26094E   26117.94770833  .00186380  00000+0  18966-3 0  1173",
                "2 70539  97.2835 131.1666 0009124 275.9634  42.6994 16.10697701    19"
            ],
            "stdMag": 5,
            "noradId": "70539",
            "intDes": null,
            "tleUrl": "http://celestrak.org/NORAD/elements/supplemental/sup-gp.php?FILE=starlink&FORMAT=tle",
            "launchDate": "2026-04-26T14:37:09.000Z",
            "active": true,
            "batch": [
                {
                    "noradId": "70539",
                    "tle": [
                        "1 70539C 26094E   26117.94770833  .00186380  00000+0  18966-3 0  1173",
                        "2 70539  97.2835 131.1666 0009124 275.9634  42.6994 16.10697701    19"
                    ]
                }
            ]
        },
        {
            "name": "starlink379",
            "title": "Starlink-379 (G17-14) (new)",
            "tle": [
                "1 70533C 26089Y   26117.93381944 -.01792200  00000+0 -32051-2 0  1178",
                "2 70533  97.2847 323.1258 0001456  93.1844  39.0256 16.02674359    15"
            ],
            "stdMag": 5,
            "noradId": "70533",
            "intDes": null,
            "tleUrl": "http://celestrak.org/NORAD/elements/supplemental/sup-gp.php?FILE=starlink&FORMAT=tle",
            "launchDate": "2026-04-23T03:23:09.000Z",
            "active": true,
            "batch": [
                {
                    "noradId": "70533",
                    "tle": [
                        "1 70533C 26089Y   26117.93381944 -.01792200  00000+0 -32051-2 0  1178",
                        "2 70533  97.2847 323.1258 0001456  93.1844  39.0256 16.02674359    15"
                    ]
                },
                {
                    "noradId": "70532",
                    "tle": [
                        "1 70532C 26089X   26117.99909722 -.01827000  00000+0 -33423-2 0  1174",
                        "2 70532  97.2847 323.1962 0001535  98.2959  48.8152 16.02299874    15"
                    ]
                },
                {
                    "noradId": "70531",
                    "tle": [
                        "1 70531C 26089W   26117.96298611 -.01795500  00000+0 -33122-2 0  1173",
                        "2 70531  97.2845 323.1555 0001326 106.4078 190.0493 16.02139298    13"
                    ]
                },
                {
                    "noradId": "70534",
                    "tle": [
                        "1 70534C 26089Z   26117.96784722 -.01786300  00000+0 -31934-2 0  1176",
                        "2 70534  97.2845 323.1627 0001325 102.1546 227.3911 16.02678901    16"
                    ]
                },
                {
                    "noradId": "70529",
                    "tle": [
                        "1 70529C 26089U   26117.99215278 -.01828200  00000+0 -33678-2 0  1171",
                        "2 70529  97.2845 323.1876 0001502  93.8841  11.8397 16.02180370    19"
                    ]
                },
                {
                    "noradId": "70530",
                    "tle": [
                        "1 70530C 26089V   26117.99631944 -.01873600  00000+0 -35063-2 0  1179",
                        "2 70530  97.2847 323.1917 0001587  94.4462  32.9510 16.01928935    15"
                    ]
                },
                {
                    "noradId": "70528",
                    "tle": [
                        "1 70528C 26089T   26117.92201389 -.01846800  00000+0 -34277-2 0  1173",
                        "2 70528  97.2847 323.1098 0001427  98.4225 319.5983 16.02060094    18"
                    ]
                },
                {
                    "noradId": "70527",
                    "tle": [
                        "1 70527C 26089S   26117.94284722 -.01842700  00000+0 -34649-2 0  1174",
                        "2 70527  97.2846 323.1320 0001638  92.8964  83.8482 16.01829631    10"
                    ]
                },
                {
                    "noradId": "70526",
                    "tle": [
                        "1 70526C 26089R   26117.96645833 -.01825600  00000+0 -34766-2 0  1179",
                        "2 70526  97.2844 323.1571 0001414  99.6413 212.0403 16.01599407    15"
                    ]
                },
                {
                    "noradId": "70525",
                    "tle": [
                        "1 70525C 26089Q   26117.96854167 -.01846400  00000+0 -35795-2 0  1174",
                        "2 70525  97.2849 323.1585 0001339 101.3520 219.5878 16.01297515    13"
                    ]
                },
                {
                    "noradId": "70524",
                    "tle": [
                        "1 70524C 26089P   26117.96854167 -.01851400  00000+0 -35580-2 0  1171",
                        "2 70524  97.2847 323.1591 0001321  99.6668 222.6316 16.01453095    19"
                    ]
                },
                {
                    "noradId": "70523",
                    "tle": [
                        "1 70523C 26089N   26117.94145833 -.01869900  00000+0 -36313-2 0  1170",
                        "2 70523  97.2850 323.1286 0001691  99.5043  64.2339 16.01277801    13"
                    ]
                },
                {
                    "noradId": "70522",
                    "tle": [
                        "1 70522C 26089M   26117.95048611 -.01881700  00000+0 -36920-2 0  1172",
                        "2 70522  97.2853 323.1380 0001689 100.9724 113.5076 16.01103274    18"
                    ]
                },
                {
                    "noradId": "70521",
                    "tle": [
                        "1 70521C 26089L   26117.95951389 -.01886600  00000+0 -37380-2 0  1171",
                        "2 70521  97.2852 323.1472 0001497 107.3172 157.9864 16.00933857    17"
                    ]
                },
                {
                    "noradId": "70520",
                    "tle": [
                        "1 70520C 26089K   26117.96506944 -.01871000  00000+0 -37432-2 0  1170",
                        "2 70520  97.2855 323.1526 0001246 100.6665 195.3260 16.00754169    17"
                    ]
                },
                {
                    "noradId": "70519",
                    "tle": [
                        "1 70519C 26089J   26117.95673611 -.01882900  00000+0 -37905-2 0  1179",
                        "2 70519  97.2854 323.1431 0001541 109.9129 136.8628 16.00650100    12"
                    ]
                },
                {
                    "noradId": "70518",
                    "tle": [
                        "1 70518C 26089H   26117.96437500 -.01887000  00000+0 -38389-2 0  1177",
                        "2 70518  97.2856 323.1509 0001351 106.3771 183.0102 16.00465133    13"
                    ]
                },
                {
                    "noradId": "70517",
                    "tle": [
                        "1 70517C 26089G   26117.99284722 -.01952300  00000+0 -40306-2 0  1173",
                        "2 70517  97.2857 323.1811 0001442  90.1774   1.8110 16.00238056    11"
                    ]
                },
                {
                    "noradId": "70515",
                    "tle": [
                        "1 70515C 26089E   26117.94840278 -.01928800  00000+0 -40078-2 0  1174",
                        "2 70515  97.2858 323.1320 0001638  99.8499  93.8888 16.00109235    11"
                    ]
                },
                {
                    "noradId": "70516",
                    "tle": [
                        "1 70516C 26089F   26117.95673611 -.01914500  00000+0 -39544-2 0  1179",
                        "2 70516  97.2856 323.1414 0001489 105.3290 137.5216 16.00208935    18"
                    ]
                },
                {
                    "noradId": "70514",
                    "tle": [
                        "1 70514C 26089D   26117.93590278 -.01960500  00000+0 -40995-2 0  1175",
                        "2 70514  97.2856 323.1178 0001583  92.6356  27.7283 16.00013547    16"
                    ]
                },
                {
                    "noradId": "70513",
                    "tle": [
                        "1 70513C 26089C   26117.98034722 -.01977900  00000+0 -42130-2 0  1171",
                        "2 70513  97.2858 323.1656 0001314  92.2041 282.6858 15.99691897    14"
                    ]
                },
                {
                    "noradId": "70512",
                    "tle": [
                        "1 70512C 26089B   26117.95534722 -.01963500  00000+0 -41969-2 0  1172",
                        "2 70512  97.2860 323.1378 0001563 105.2992 124.3119 15.99620907    19"
                    ]
                },
                {
                    "noradId": "70511",
                    "tle": [
                        "1 70511C 26089A   26117.96437500 -.01982100  00000+0 -42792-2 0  1170",
                        "2 70511  97.2859 323.1469 0001392 114.7885 165.6638 15.99451812    14"
                    ]
                }
            ]
        }
    ],
    "config": {}
}